HYPERFIELD-1A           
1 60562U 24149CY  26068.76488211  .00008569  00000+0  30052-3 0  9998
2 60562  97.3842 149.5066 0003865 313.7844  46.3076 15.29681349 86836
STARLINK-32399          
1 61627U 24191G   26068.24125381 -.00000031  00000+0  83730-5 0  9997
2 61627  42.9975 149.6043 0000282 252.0749 108.0072 15.27568830 77555
